[{"OBJECT_NAME":"STARLINK-36651","OBJECT_ID":"2026-033V","EPOCH":"2026-03-09T22:24:02.501856","MEAN_MOTION":15.82145228,"ECCENTRICITY":0.00021081,"INCLINATION":42.998,"RA_OF_ASC_NODE":269.838,"ARG_OF_PERICENTER":262.4734,"MEAN_ANOMALY":97.5898,"EPHEMERIS_TYPE":0,"CLASSIFICATION_TYPE":"U","NORAD_CAT_ID":67840,"ELEMENT_SET_NO":999,"REV_AT_EPOCH":466,"BSTAR":0.0017818753,"MEAN_MOTION_DOT":0.0039466,"MEAN_MOTION_DDOT":0},{"OBJECT_NAME":"SL-4 R\/B","OBJECT_ID":"2025-310B","EPOCH":"2026-03-09T22:17:27.678912","MEAN_MOTION":16.04687815,"ECCENTRICITY":0.01171166,"INCLINATION":97.9385,"RA_OF_ASC_NODE":88.8127,"ARG_OF_PERICENTER":159.54,"MEAN_ANOMALY":201.0629,"EPHEMERIS_TYPE":0,"CLASSIFICATION_TYPE":"U","NORAD_CAT_ID":67235,"ELEMENT_SET_NO":999,"REV_AT_EPOCH":1167,"BSTAR":0.00062072602,"MEAN_MOTION_DOT":0.01041733,"MEAN_MOTION_DDOT":2.575978e-6}]
